{"type": "FeatureCollection", "features": [{"type": "Feature", "geometry": {"type": "Polygon", "coordinates": [[[92.9094968553459, 25.74126050420168], [92.92949685534592, 25.74126050420168], [92.92949685534592, 25.761260504201683], [92.9094968553459, 25.761260504201683], [92.9094968553459, 25.74126050420168]]]}, "properties": {"cell_id": "dh_8_40", "lat": 25.75126, "lon": 92.9195, "risk_score": 0.98, "risk_category": 4, "risk_label": "Very High", "model_version": "rf-v1", "prediction_timestamp": "2026-09-04T03:05:47.417420Z", "is_demo_data": true, "elevation": 987.5, "slope": 90.0, "rainfall_24h": 96.0, "rainfall_72h": 190.9, "historical_landslide_density": 0.45, "top_contributors": ["Nearby historical landslides", "Steep terrain", "Sustained multi-day rainfall"], "recommended_action": "Evacuate if instructed. Stay away from hillsides and streams."}}, {"type": "Feature", "geometry": {"type": "Polygon", "coordinates": [[[92.99, 25.74126050420168], [93.01, 25.74126050420168], [93.01, 25.761260504201683], [92.99, 25.761260504201683], [92.99, 25.74126050420168]]]}, "properties": {"cell_id": "dh_8_48", "lat": 25.75126, "lon": 93.0, "risk_score": 0.21, "risk_category": 1, "risk_label": "Low", "model_version": "rf-v1", "prediction_timestamp": "2026-09-04T03:05:47.417420Z", "is_demo_data": true, "elevation": 1249.2, "slope": 89.99, "rainfall_24h": 36.0, "rainfall_72h": 86.2, "historical_landslide_density": 0.176, "top_contributors": ["Steep terrain", "Nearby historical landslides", "Sustained multi-day rainfall"], "recommended_action": "No immediate action required. Stay informed about local advisories."}}, {"type": "Feature", "geometry": {"type": "Polygon", "coordinates": [[[93.07050314465408, 25.74126050420168], [93.0905031446541, 25.74126050420168], [93.0905031446541, 25.761260504201683], [93.07050314465408, 25.761260504201683], [93.07050314465408, 25.74126050420168]]]}, "properties": {"cell_id": "dh_8_56", "lat": 25.75126, "lon": 93.0805, "risk_score": 0.94, "risk_category": 4, "risk_label": "Very High", "model_version": "rf-v1", "prediction_timestamp": "2026-09-04T03:05:47.417420Z", "is_demo_data": true, "elevation": 837.5, "slope": 90.0, "rainfall_24h": 64.7, "rainfall_72h": 130.7, "historical_landslide_density": 0.549, "top_contributors": ["Nearby historical landslides", "Steep terrain", "Sustained multi-day rainfall"], "recommended_action": "Evacuate if instructed. Stay away from hillsides and streams."}}, {"type": "Feature", "geometry": {"type": "Polygon", "coordinates": [[[92.82899371069182, 25.660588235294117], [92.84899371069183, 25.660588235294117], [92.84899371069183, 25.68058823529412], [92.82899371069182, 25.68058823529412], [92.82899371069182, 25.660588235294117]]]}, "properties": {"cell_id": "dh_16_32", "lat": 25.67059, "lon": 92.83899, "risk_score": 0.23, "risk_category": 1, "risk_label": "Low", "model_version": "rf-v1", "prediction_timestamp": "2026-09-04T03:05:47.417420Z", "is_demo_data": true, "elevation": 1342.0, "slope": 89.99, "rainfall_24h": 71.4, "rainfall_72h": 76.1, "historical_landslide_density": 0.331, "top_contributors": ["Nearby historical landslides", "Steep terrain", "High recent rainfall"], "recommended_action": "No immediate action required. Stay informed about local advisories."}}, {"type": "Feature", "geometry": {"type": "Polygon", "coordinates": [[[92.9094968553459, 25.660588235294117], [92.92949685534592, 25.660588235294117], [92.92949685534592, 25.68058823529412], [92.9094968553459, 25.68058823529412], [92.9094968553459, 25.660588235294117]]]}, "properties": {"cell_id": "dh_16_40", "lat": 25.67059, "lon": 92.9195, "risk_score": 0.91, "risk_category": 4, "risk_label": "Very High", "model_version": "rf-v1", "prediction_timestamp": "2026-09-04T03:05:47.417420Z", "is_demo_data": true, "elevation": 1048.7, "slope": 90.0, "rainfall_24h": 76.8, "rainfall_72h": 126.9, "historical_landslide_density": 0.445, "top_contributors": ["Nearby historical landslides", "Steep terrain", "High recent rainfall"], "recommended_action": "Evacuate if instructed. Stay away from hillsides and streams."}}, {"type": "Feature", "geometry": {"type": "Polygon", "coordinates": [[[92.99, 25.660588235294117], [93.01, 25.660588235294117], [93.01, 25.68058823529412], [92.99, 25.68058823529412], [92.99, 25.660588235294117]]]}, "properties": {"cell_id": "dh_16_48", "lat": 25.67059, "lon": 93.0, "risk_score": 0.9, "risk_category": 4, "risk_label": "Very High", "model_version": "rf-v1", "prediction_timestamp": "2026-09-04T03:05:47.417420Z", "is_demo_data": true, "elevation": 1115.8, "slope": 89.99, "rainfall_24h": 13.8, "rainfall_72h": 102.0, "historical_landslide_density": 0.368, "top_contributors": ["Nearby historical landslides", "Steep terrain", "Sustained multi-day rainfall"], "recommended_action": "Evacuate if instructed. Stay away from hillsides and streams."}}, {"type": "Feature", "geometry": {"type": "Polygon", "coordinates": [[[93.07050314465408, 25.660588235294117], [93.0905031446541, 25.660588235294117], [93.0905031446541, 25.68058823529412], [93.07050314465408, 25.68058823529412], [93.07050314465408, 25.660588235294117]]]}, "properties": {"cell_id": "dh_16_56", "lat": 25.67059, "lon": 93.0805, "risk_score": 0.21, "risk_category": 1, "risk_label": "Low", "model_version": "rf-v1", "prediction_timestamp": "2026-09-04T03:05:47.417420Z", "is_demo_data": true, "elevation": 1213.3, "slope": 90.0, "rainfall_24h": 34.5, "rainfall_72h": 123.7, "historical_landslide_density": 0.156, "top_contributors": ["Steep terrain", "Nearby historical landslides", "Sustained multi-day rainfall"], "recommended_action": "No immediate action required. Stay informed about local advisories."}}, {"type": "Feature", "geometry": {"type": "Polygon", "coordinates": [[[92.74849056603773, 25.579915966386555], [92.76849056603774, 25.579915966386555], [92.76849056603774, 25.599915966386558], [92.74849056603773, 25.599915966386558], [92.74849056603773, 25.579915966386555]]]}, "properties": {"cell_id": "dh_24_24", "lat": 25.58992, "lon": 92.75849, "risk_score": 0.94, "risk_category": 4, "risk_label": "Very High", "model_version": "rf-v1", "prediction_timestamp": "2026-09-04T03:05:47.417420Z", "is_demo_data": true, "elevation": 1107.6, "slope": 90.0, "rainfall_24h": 9.6, "rainfall_72h": 42.1, "historical_landslide_density": 0.867, "top_contributors": ["Nearby historical landslides", "Steep terrain", "Sustained multi-day rainfall"], "recommended_action": "Evacuate if instructed. Stay away from hillsides and streams."}}, {"type": "Feature", "geometry": {"type": "Polygon", "coordinates": [[[92.82899371069182, 25.579915966386555], [92.84899371069183, 25.579915966386555], [92.84899371069183, 25.599915966386558], [92.82899371069182, 25.599915966386558], [92.82899371069182, 25.579915966386555]]]}, "properties": {"cell_id": "dh_24_32", "lat": 25.58992, "lon": 92.83899, "risk_score": 0.93, "risk_category": 4, "risk_label": "Very High", "model_version": "rf-v1", "prediction_timestamp": "2026-09-04T03:05:47.417420Z", "is_demo_data": true, "elevation": 1091.6, "slope": 90.0, "rainfall_24h": 36.4, "rainfall_72h": 74.2, "historical_landslide_density": 0.476, "top_contributors": ["Nearby historical landslides", "Steep terrain", "Sustained multi-day rainfall"], "recommended_action": "Evacuate if instructed. Stay away from hillsides and streams."}}, {"type": "Feature", "geometry": {"type": "Polygon", "coordinates": [[[92.9094968553459, 25.579915966386555], [92.92949685534592, 25.579915966386555], [92.92949685534592, 25.599915966386558], [92.9094968553459, 25.599915966386558], [92.9094968553459, 25.579915966386555]]]}, "properties": {"cell_id": "dh_24_40", "lat": 25.58992, "lon": 92.9195, "risk_score": 0.97, "risk_category": 4, "risk_label": "Very High", "model_version": "rf-v1", "prediction_timestamp": "2026-09-04T03:05:47.417420Z", "is_demo_data": true, "elevation": 1264.3, "slope": 90.0, "rainfall_24h": 99.4, "rainfall_72h": 191.3, "historical_landslide_density": 0.378, "top_contributors": ["Nearby historical landslides", "Steep terrain", "Sustained multi-day rainfall"], "recommended_action": "Evacuate if instructed. Stay away from hillsides and streams."}}, {"type": "Feature", "geometry": {"type": "Polygon", "coordinates": [[[92.99, 25.579915966386555], [93.01, 25.579915966386555], [93.01, 25.599915966386558], [92.99, 25.599915966386558], [92.99, 25.579915966386555]]]}, "properties": {"cell_id": "dh_24_48", "lat": 25.58992, "lon": 93.0, "risk_score": 0.9, "risk_category": 4, "risk_label": "Very High", "model_version": "rf-v1", "prediction_timestamp": "2026-09-04T03:05:47.417420Z", "is_demo_data": true, "elevation": 977.2, "slope": 89.99, "rainfall_24h": 57.1, "rainfall_72h": 132.9, "historical_landslide_density": 0.39, "top_contributors": ["Nearby historical landslides", "Steep terrain", "Sustained multi-day rainfall"], "recommended_action": "Evacuate if instructed. Stay away from hillsides and streams."}}, {"type": "Feature", "geometry": {"type": "Polygon", "coordinates": [[[93.07050314465408, 25.579915966386555], [93.0905031446541, 25.579915966386555], [93.0905031446541, 25.599915966386558], [93.07050314465408, 25.599915966386558], [93.07050314465408, 25.579915966386555]]]}, "properties": {"cell_id": "dh_24_56", "lat": 25.58992, "lon": 93.0805, "risk_score": 0.94, "risk_category": 4, "risk_label": "Very High", "model_version": "rf-v1", "prediction_timestamp": "2026-09-04T03:05:47.417420Z", "is_demo_data": true, "elevation": 1556.7, "slope": 90.0, "rainfall_24h": 43.3, "rainfall_72h": 100.7, "historical_landslide_density": 0.659, "top_contributors": ["Nearby historical landslides", "Steep terrain", "Sustained multi-day rainfall"], "recommended_action": "Evacuate if instructed. Stay away from hillsides and streams."}}, {"type": "Feature", "geometry": {"type": "Polygon", "coordinates": [[[93.15100628930817, 25.579915966386555], [93.17100628930818, 25.579915966386555], [93.17100628930818, 25.599915966386558], [93.15100628930817, 25.599915966386558], [93.15100628930817, 25.579915966386555]]]}, "properties": {"cell_id": "dh_24_64", "lat": 25.58992, "lon": 93.16101, "risk_score": 0.93, "risk_category": 4, "risk_label": "Very High", "model_version": "rf-v1", "prediction_timestamp": "2026-09-04T03:05:47.417420Z", "is_demo_data": true, "elevation": 764.7, "slope": 89.99, "rainfall_24h": 77.3, "rainfall_72h": 164.0, "historical_landslide_density": 0.559, "top_contributors": ["Nearby historical landslides", "Steep terrain", "Sustained multi-day rainfall"], "recommended_action": "Evacuate if instructed. Stay away from hillsides and streams."}}, {"type": "Feature", "geometry": {"type": "Polygon", "coordinates": [[[92.66798742138364, 25.499243697478992], [92.68798742138365, 25.499243697478992], [92.68798742138365, 25.519243697478995], [92.66798742138364, 25.519243697478995], [92.66798742138364, 25.499243697478992]]]}, "properties": {"cell_id": "dh_32_16", "lat": 25.50924, "lon": 92.67799, "risk_score": 0.94, "risk_category": 4, "risk_label": "Very High", "model_version": "rf-v1", "prediction_timestamp": "2026-09-04T03:05:47.417420Z", "is_demo_data": true, "elevation": 1175.8, "slope": 90.0, "rainfall_24h": 67.0, "rainfall_72h": 108.3, "historical_landslide_density": 0.461, "top_contributors": ["Nearby historical landslides", "Steep terrain", "High recent rainfall"], "recommended_action": "Evacuate if instructed. Stay away from hillsides and streams."}}, {"type": "Feature", "geometry": {"type": "Polygon", "coordinates": [[[92.74849056603773, 25.499243697478992], [92.76849056603774, 25.499243697478992], [92.76849056603774, 25.519243697478995], [92.74849056603773, 25.519243697478995], [92.74849056603773, 25.499243697478992]]]}, "properties": {"cell_id": "dh_32_24", "lat": 25.50924, "lon": 92.75849, "risk_score": 0.2, "risk_category": 1, "risk_label": "Low", "model_version": "rf-v1", "prediction_timestamp": "2026-09-04T03:05:47.417420Z", "is_demo_data": true, "elevation": 1093.2, "slope": 89.99, "rainfall_24h": 45.2, "rainfall_72h": 93.4, "historical_landslide_density": 0.224, "top_contributors": ["Nearby historical landslides", "Steep terrain", "Sustained multi-day rainfall"], "recommended_action": "No immediate action required. Stay informed about local advisories."}}, {"type": "Feature", "geometry": {"type": "Polygon", "coordinates": [[[92.82899371069182, 25.499243697478992], [92.84899371069183, 25.499243697478992], [92.84899371069183, 25.519243697478995], [92.82899371069182, 25.519243697478995], [92.82899371069182, 25.499243697478992]]]}, "properties": {"cell_id": "dh_32_32", "lat": 25.50924, "lon": 92.83899, "risk_score": 0.93, "risk_category": 4, "risk_label": "Very High", "model_version": "rf-v1", "prediction_timestamp": "2026-09-04T03:05:47.417420Z", "is_demo_data": true, "elevation": 831.9, "slope": 90.0, "rainfall_24h": 42.2, "rainfall_72h": 93.2, "historical_landslide_density": 0.481, "top_contributors": ["Nearby historical landslides", "Steep terrain", "Sustained multi-day rainfall"], "recommended_action": "Evacuate if instructed. Stay away from hillsides and streams."}}, {"type": "Feature", "geometry": {"type": "Polygon", "coordinates": [[[92.9094968553459, 25.499243697478992], [92.92949685534592, 25.499243697478992], [92.92949685534592, 25.519243697478995], [92.9094968553459, 25.519243697478995], [92.9094968553459, 25.499243697478992]]]}, "properties": {"cell_id": "dh_32_40", "lat": 25.50924, "lon": 92.9195, "risk_score": 0.21, "risk_category": 1, "risk_label": "Low", "model_version": "rf-v1", "prediction_timestamp": "2026-09-04T03:05:47.417420Z", "is_demo_data": true, "elevation": 1239.9, "slope": 90.0, "rainfall_24h": 0.5, "rainfall_72h": 89.8, "historical_landslide_density": 0.198, "top_contributors": ["Nearby historical landslides", "Steep terrain", "Sustained multi-day rainfall"], "recommended_action": "No immediate action required. Stay informed about local advisories."}}, {"type": "Feature", "geometry": {"type": "Polygon", "coordinates": [[[92.99, 25.499243697478992], [93.01, 25.499243697478992], [93.01, 25.519243697478995], [92.99, 25.519243697478995], [92.99, 25.499243697478992]]]}, "properties": {"cell_id": "dh_32_48", "lat": 25.50924, "lon": 93.0, "risk_score": 0.94, "risk_category": 4, "risk_label": "Very High", "model_version": "rf-v1", "prediction_timestamp": "2026-09-04T03:05:47.417420Z", "is_demo_data": true, "elevation": 1255.7, "slope": 90.0, "rainfall_24h": 28.8, "rainfall_72h": 63.2, "historical_landslide_density": 0.71, "top_contributors": ["Nearby historical landslides", "Steep terrain", "Sustained multi-day rainfall"], "recommended_action": "Evacuate if instructed. Stay away from hillsides and streams."}}, {"type": "Feature", "geometry": {"type": "Polygon", "coordinates": [[[93.07050314465408, 25.499243697478992], [93.0905031446541, 25.499243697478992], [93.0905031446541, 25.519243697478995], [93.07050314465408, 25.519243697478995], [93.07050314465408, 25.499243697478992]]]}, "properties": {"cell_id": "dh_32_56", "lat": 25.50924, "lon": 93.0805, "risk_score": 0.9, "risk_category": 4, "risk_label": "Very High", "model_version": "rf-v1", "prediction_timestamp": "2026-09-04T03:05:47.417420Z", "is_demo_data": true, "elevation": 1055.8, "slope": 90.0, "rainfall_24h": 14.1, "rainfall_72h": 71.1, "historical_landslide_density": 0.379, "top_contributors": ["Nearby historical landslides", "Steep terrain", "Sustained multi-day rainfall"], "recommended_action": "Evacuate if instructed. Stay away from hillsides and streams."}}, {"type": "Feature", "geometry": {"type": "Polygon", "coordinates": [[[93.15100628930817, 25.499243697478992], [93.17100628930818, 25.499243697478992], [93.17100628930818, 25.519243697478995], [93.15100628930817, 25.519243697478995], [93.15100628930817, 25.499243697478992]]]}, "properties": {"cell_id": "dh_32_64", "lat": 25.50924, "lon": 93.16101, "risk_score": 0.97, "risk_category": 4, "risk_label": "Very High", "model_version": "rf-v1", "prediction_timestamp": "2026-09-04T03:05:47.417420Z", "is_demo_data": true, "elevation": 1167.6, "slope": 90.0, "rainfall_24h": 91.6, "rainfall_72h": 159.3, "historical_landslide_density": 0.638, "top_contributors": ["Nearby historical landslides", "Steep terrain", "High recent rainfall"], "recommended_action": "Evacuate if instructed. Stay away from hillsides and streams."}}, {"type": "Feature", "geometry": {"type": "Polygon", "coordinates": [[[93.23150943396226, 25.499243697478992], [93.25150943396227, 25.499243697478992], [93.25150943396227, 25.519243697478995], [93.23150943396226, 25.519243697478995], [93.23150943396226, 25.499243697478992]]]}, "properties": {"cell_id": "dh_32_72", "lat": 25.50924, "lon": 93.24151, "risk_score": 0.9, "risk_category": 4, "risk_label": "Very High", "model_version": "rf-v1", "prediction_timestamp": "2026-09-04T03:05:47.417420Z", "is_demo_data": true, "elevation": 1066.3, "slope": 89.99, "rainfall_24h": 57.1, "rainfall_72h": 102.1, "historical_landslide_density": 0.421, "top_contributors": ["Nearby historical landslides", "Steep terrain", "High recent rainfall"], "recommended_action": "Evacuate if instructed. Stay away from hillsides and streams."}}, {"type": "Feature", "geometry": {"type": "Polygon", "coordinates": [[[93.31201257861635, 25.499243697478992], [93.33201257861636, 25.499243697478992], [93.33201257861636, 25.519243697478995], [93.31201257861635, 25.519243697478995], [93.31201257861635, 25.499243697478992]]]}, "properties": {"cell_id": "dh_32_80", "lat": 25.50924, "lon": 93.32201, "risk_score": 0.94, "risk_category": 4, "risk_label": "Very High", "model_version": "rf-v1", "prediction_timestamp": "2026-09-04T03:05:47.417420Z", "is_demo_data": true, "elevation": 987.6, "slope": 90.0, "rainfall_24h": 34.7, "rainfall_72h": 96.2, "historical_landslide_density": 0.735, "top_contributors": ["Nearby historical landslides", "Steep terrain", "Sustained multi-day rainfall"], "recommended_action": "Evacuate if instructed. Stay away from hillsides and streams."}}, {"type": "Feature", "geometry": {"type": "Polygon", "coordinates": [[[92.66798742138364, 25.41857142857143], [92.68798742138365, 25.41857142857143], [92.68798742138365, 25.438571428571432], [92.66798742138364, 25.438571428571432], [92.66798742138364, 25.41857142857143]]]}, "properties": {"cell_id": "dh_40_16", "lat": 25.42857, "lon": 92.67799, "risk_score": 0.94, "risk_category": 4, "risk_label": "Very High", "model_version": "rf-v1", "prediction_timestamp": "2026-09-04T03:05:47.417420Z", "is_demo_data": true, "elevation": 1399.4, "slope": 90.0, "rainfall_24h": 28.1, "rainfall_72h": 70.1, "historical_landslide_density": 0.729, "top_contributors": ["Nearby historical landslides", "Steep terrain", "Sustained multi-day rainfall"], "recommended_action": "Evacuate if instructed. Stay away from hillsides and streams."}}, {"type": "Feature", "geometry": {"type": "Polygon", "coordinates": [[[92.74849056603773, 25.41857142857143], [92.76849056603774, 25.41857142857143], [92.76849056603774, 25.438571428571432], [92.74849056603773, 25.438571428571432], [92.74849056603773, 25.41857142857143]]]}, "properties": {"cell_id": "dh_40_24", "lat": 25.42857, "lon": 92.75849, "risk_score": 0.88, "risk_category": 4, "risk_label": "Very High", "model_version": "rf-v1", "prediction_timestamp": "2026-09-04T03:05:47.417420Z", "is_demo_data": true, "elevation": 1504.4, "slope": 89.99, "rainfall_24h": 98.0, "rainfall_72h": 184.2, "historical_landslide_density": 0.361, "top_contributors": ["Nearby historical landslides", "Steep terrain", "Sustained multi-day rainfall"], "recommended_action": "Evacuate if instructed. Stay away from hillsides and streams."}}, {"type": "Feature", "geometry": {"type": "Polygon", "coordinates": [[[92.82899371069182, 25.41857142857143], [92.84899371069183, 25.41857142857143], [92.84899371069183, 25.438571428571432], [92.82899371069182, 25.438571428571432], [92.82899371069182, 25.41857142857143]]]}, "properties": {"cell_id": "dh_40_32", "lat": 25.42857, "lon": 92.83899, "risk_score": 0.93, "risk_category": 4, "risk_label": "Very High", "model_version": "rf-v1", "prediction_timestamp": "2026-09-04T03:05:47.417420Z", "is_demo_data": true, "elevation": 1439.0, "slope": 90.0, "rainfall_24h": 16.4, "rainfall_72h": 47.5, "historical_landslide_density": 0.494, "top_contributors": ["Nearby historical landslides", "Steep terrain", "Sustained multi-day rainfall"], "recommended_action": "Evacuate if instructed. Stay away from hillsides and streams."}}, {"type": "Feature", "geometry": {"type": "Polygon", "coordinates": [[[92.9094968553459, 25.41857142857143], [92.92949685534592, 25.41857142857143], [92.92949685534592, 25.438571428571432], [92.9094968553459, 25.438571428571432], [92.9094968553459, 25.41857142857143]]]}, "properties": {"cell_id": "dh_40_40", "lat": 25.42857, "lon": 92.9195, "risk_score": 0.92, "risk_category": 4, "risk_label": "Very High", "model_version": "rf-v1", "prediction_timestamp": "2026-09-04T03:05:47.417420Z", "is_demo_data": true, "elevation": 1055.6, "slope": 89.99, "rainfall_24h": 25.5, "rainfall_72h": 75.5, "historical_landslide_density": 0.453, "top_contributors": ["Nearby historical landslides", "Steep terrain", "Sustained multi-day rainfall"], "recommended_action": "Evacuate if instructed. Stay away from hillsides and streams."}}, {"type": "Feature", "geometry": {"type": "Polygon", "coordinates": [[[92.99, 25.41857142857143], [93.01, 25.41857142857143], [93.01, 25.438571428571432], [92.99, 25.438571428571432], [92.99, 25.41857142857143]]]}, "properties": {"cell_id": "dh_40_48", "lat": 25.42857, "lon": 93.0, "risk_score": 0.94, "risk_category": 4, "risk_label": "Very High", "model_version": "rf-v1", "prediction_timestamp": "2026-09-04T03:05:47.417420Z", "is_demo_data": true, "elevation": 1226.6, "slope": 90.0, "rainfall_24h": 49.6, "rainfall_72h": 109.7, "historical_landslide_density": 0.581, "top_contributors": ["Nearby historical landslides", "Steep terrain", "Sustained multi-day rainfall"], "recommended_action": "Evacuate if instructed. Stay away from hillsides and streams."}}, {"type": "Feature", "geometry": {"type": "Polygon", "coordinates": [[[93.07050314465408, 25.41857142857143], [93.0905031446541, 25.41857142857143], [93.0905031446541, 25.438571428571432], [93.07050314465408, 25.438571428571432], [93.07050314465408, 25.41857142857143]]]}, "properties": {"cell_id": "dh_40_56", "lat": 25.42857, "lon": 93.0805, "risk_score": 0.94, "risk_category": 4, "risk_label": "Very High", "model_version": "rf-v1", "prediction_timestamp": "2026-09-04T03:05:47.417420Z", "is_demo_data": true, "elevation": 1259.0, "slope": 90.0, "rainfall_24h": 1.6, "rainfall_72h": 24.6, "historical_landslide_density": 0.767, "top_contributors": ["Nearby historical landslides", "Steep terrain"], "recommended_action": "Evacuate if instructed. Stay away from hillsides and streams."}}, {"type": "Feature", "geometry": {"type": "Polygon", "coordinates": [[[93.15100628930817, 25.41857142857143], [93.17100628930818, 25.41857142857143], [93.17100628930818, 25.438571428571432], [93.15100628930817, 25.438571428571432], [93.15100628930817, 25.41857142857143]]]}, "properties": {"cell_id": "dh_40_64", "lat": 25.42857, "lon": 93.16101, "risk_score": 0.92, "risk_category": 4, "risk_label": "Very High", "model_version": "rf-v1", "prediction_timestamp": "2026-09-04T03:05:47.417420Z", "is_demo_data": true, "elevation": 1231.3, "slope": 90.0, "rainfall_24h": 2.2, "rainfall_72h": 79.8, "historical_landslide_density": 0.454, "top_contributors": ["Nearby historical landslides", "Steep terrain", "Sustained multi-day rainfall"], "recommended_action": "Evacuate if instructed. Stay away from hillsides and streams."}}, {"type": "Feature", "geometry": {"type": "Polygon", "coordinates": [[[93.23150943396226, 25.41857142857143], [93.25150943396227, 25.41857142857143], [93.25150943396227, 25.438571428571432], [93.23150943396226, 25.438571428571432], [93.23150943396226, 25.41857142857143]]]}, "properties": {"cell_id": "dh_40_72", "lat": 25.42857, "lon": 93.24151, "risk_score": 0.94, "risk_category": 4, "risk_label": "Very High", "model_version": "rf-v1", "prediction_timestamp": "2026-09-04T03:05:47.417420Z", "is_demo_data": true, "elevation": 1038.9, "slope": 90.0, "rainfall_24h": 25.9, "rainfall_72h": 59.8, "historical_landslide_density": 0.543, "top_contributors": ["Nearby historical landslides", "Steep terrain", "Sustained multi-day rainfall"], "recommended_action": "Evacuate if instructed. Stay away from hillsides and streams."}}, {"type": "Feature", "geometry": {"type": "Polygon", "coordinates": [[[93.31201257861635, 25.41857142857143], [93.33201257861636, 25.41857142857143], [93.33201257861636, 25.438571428571432], [93.31201257861635, 25.438571428571432], [93.31201257861635, 25.41857142857143]]]}, "properties": {"cell_id": "dh_40_80", "lat": 25.42857, "lon": 93.32201, "risk_score": 0.9, "risk_category": 4, "risk_label": "Very High", "model_version": "rf-v1", "prediction_timestamp": "2026-09-04T03:05:47.417420Z", "is_demo_data": true, "elevation": 1195.0, "slope": 90.0, "rainfall_24h": 52.8, "rainfall_72h": 117.3, "historical_landslide_density": 0.374, "top_contributors": ["Nearby historical landslides", "Steep terrain", "Sustained multi-day rainfall"], "recommended_action": "Evacuate if instructed. Stay away from hillsides and streams."}}, {"type": "Feature", "geometry": {"type": "Polygon", "coordinates": [[[93.39251572327044, 25.41857142857143], [93.41251572327045, 25.41857142857143], [93.41251572327045, 25.438571428571432], [93.39251572327044, 25.438571428571432], [93.39251572327044, 25.41857142857143]]]}, "properties": {"cell_id": "dh_40_88", "lat": 25.42857, "lon": 93.40252, "risk_score": 0.94, "risk_category": 4, "risk_label": "Very High", "model_version": "rf-v1", "prediction_timestamp": "2026-09-04T03:05:47.417420Z", "is_demo_data": true, "elevation": 1159.7, "slope": 90.0, "rainfall_24h": 1.4, "rainfall_72h": 17.4, "historical_landslide_density": 0.622, "top_contributors": ["Nearby historical landslides", "Steep terrain"], "recommended_action": "Evacuate if instructed. Stay away from hillsides and streams."}}, {"type": "Feature", "geometry": {"type": "Polygon", "coordinates": [[[92.74849056603773, 25.337899159663866], [92.76849056603774, 25.337899159663866], [92.76849056603774, 25.35789915966387], [92.74849056603773, 25.35789915966387], [92.74849056603773, 25.337899159663866]]]}, "properties": {"cell_id": "dh_48_24", "lat": 25.3479, "lon": 92.75849, "risk_score": 0.94, "risk_category": 4, "risk_label": "Very High", "model_version": "rf-v1", "prediction_timestamp": "2026-09-04T03:05:47.417420Z", "is_demo_data": true, "elevation": 1444.3, "slope": 90.0, "rainfall_24h": 11.6, "rainfall_72h": 54.0, "historical_landslide_density": 0.719, "top_contributors": ["Nearby historical landslides", "Steep terrain", "Sustained multi-day rainfall"], "recommended_action": "Evacuate if instructed. Stay away from hillsides and streams."}}, {"type": "Feature", "geometry": {"type": "Polygon", "coordinates": [[[92.82899371069182, 25.337899159663866], [92.84899371069183, 25.337899159663866], [92.84899371069183, 25.35789915966387], [92.82899371069182, 25.35789915966387], [92.82899371069182, 25.337899159663866]]]}, "properties": {"cell_id": "dh_48_32", "lat": 25.3479, "lon": 92.83899, "risk_score": 0.94, "risk_category": 4, "risk_label": "Very High", "model_version": "rf-v1", "prediction_timestamp": "2026-09-04T03:05:47.417420Z", "is_demo_data": true, "elevation": 1396.2, "slope": 90.0, "rainfall_24h": 64.7, "rainfall_72h": 147.0, "historical_landslide_density": 0.458, "top_contributors": ["Nearby historical landslides", "Steep terrain", "Sustained multi-day rainfall"], "recommended_action": "Evacuate if instructed. Stay away from hillsides and streams."}}, {"type": "Feature", "geometry": {"type": "Polygon", "coordinates": [[[92.9094968553459, 25.337899159663866], [92.92949685534592, 25.337899159663866], [92.92949685534592, 25.35789915966387], [92.9094968553459, 25.35789915966387], [92.9094968553459, 25.337899159663866]]]}, "properties": {"cell_id": "dh_48_40", "lat": 25.3479, "lon": 92.9195, "risk_score": 0.2, "risk_category": 1, "risk_label": "Low", "model_version": "rf-v1", "prediction_timestamp": "2026-09-04T03:05:47.417420Z", "is_demo_data": true, "elevation": 1088.4, "slope": 89.99, "rainfall_24h": 26.4, "rainfall_72h": 90.0, "historical_landslide_density": 0.285, "top_contributors": ["Nearby historical landslides", "Steep terrain", "Sustained multi-day rainfall"], "recommended_action": "No immediate action required. Stay informed about local advisories."}}, {"type": "Feature", "geometry": {"type": "Polygon", "coordinates": [[[92.99, 25.337899159663866], [93.01, 25.337899159663866], [93.01, 25.35789915966387], [92.99, 25.35789915966387], [92.99, 25.337899159663866]]]}, "properties": {"cell_id": "dh_48_48", "lat": 25.3479, "lon": 93.0, "risk_score": 0.21, "risk_category": 1, "risk_label": "Low", "model_version": "rf-v1", "prediction_timestamp": "2026-09-04T03:05:47.417420Z", "is_demo_data": true, "elevation": 1502.9, "slope": 90.0, "rainfall_24h": 34.0, "rainfall_72h": 36.0, "historical_landslide_density": 0.227, "top_contributors": ["Nearby historical landslides", "Steep terrain", "High recent rainfall"], "recommended_action": "No immediate action required. Stay informed about local advisories."}}, {"type": "Feature", "geometry": {"type": "Polygon", "coordinates": [[[93.07050314465408, 25.337899159663866], [93.0905031446541, 25.337899159663866], [93.0905031446541, 25.35789915966387], [93.07050314465408, 25.35789915966387], [93.07050314465408, 25.337899159663866]]]}, "properties": {"cell_id": "dh_48_56", "lat": 25.3479, "lon": 93.0805, "risk_score": 0.95, "risk_category": 4, "risk_label": "Very High", "model_version": "rf-v1", "prediction_timestamp": "2026-09-04T03:05:47.417420Z", "is_demo_data": true, "elevation": 1307.0, "slope": 90.0, "rainfall_24h": 66.8, "rainfall_72h": 94.4, "historical_landslide_density": 0.636, "top_contributors": ["Nearby historical landslides", "Steep terrain", "High recent rainfall"], "recommended_action": "Evacuate if instructed. Stay away from hillsides and streams."}}, {"type": "Feature", "geometry": {"type": "Polygon", "coordinates": [[[93.15100628930817, 25.337899159663866], [93.17100628930818, 25.337899159663866], [93.17100628930818, 25.35789915966387], [93.15100628930817, 25.35789915966387], [93.15100628930817, 25.337899159663866]]]}, "properties": {"cell_id": "dh_48_64", "lat": 25.3479, "lon": 93.16101, "risk_score": 0.22, "risk_category": 1, "risk_label": "Low", "model_version": "rf-v1", "prediction_timestamp": "2026-09-04T03:05:47.417420Z", "is_demo_data": true, "elevation": 1236.8, "slope": 90.0, "rainfall_24h": 72.9, "rainfall_72h": 150.1, "historical_landslide_density": 0.312, "top_contributors": ["Nearby historical landslides", "Steep terrain", "Sustained multi-day rainfall"], "recommended_action": "No immediate action required. Stay informed about local advisories."}}, {"type": "Feature", "geometry": {"type": "Polygon", "coordinates": [[[93.23150943396226, 25.337899159663866], [93.25150943396227, 25.337899159663866], [93.25150943396227, 25.35789915966387], [93.23150943396226, 25.35789915966387], [93.23150943396226, 25.337899159663866]]]}, "properties": {"cell_id": "dh_48_72", "lat": 25.3479, "lon": 93.24151, "risk_score": 0.96, "risk_category": 4, "risk_label": "Very High", "model_version": "rf-v1", "prediction_timestamp": "2026-09-04T03:05:47.417420Z", "is_demo_data": true, "elevation": 1167.7, "slope": 90.0, "rainfall_24h": 88.1, "rainfall_72h": 97.2, "historical_landslide_density": 0.477, "top_contributors": ["Nearby historical landslides", "Steep terrain", "High recent rainfall"], "recommended_action": "Evacuate if instructed. Stay away from hillsides and streams."}}, {"type": "Feature", "geometry": {"type": "Polygon", "coordinates": [[[93.31201257861635, 25.337899159663866], [93.33201257861636, 25.337899159663866], [93.33201257861636, 25.35789915966387], [93.31201257861635, 25.35789915966387], [93.31201257861635, 25.337899159663866]]]}, "properties": {"cell_id": "dh_48_80", "lat": 25.3479, "lon": 93.32201, "risk_score": 0.9, "risk_category": 4, "risk_label": "Very High", "model_version": "rf-v1", "prediction_timestamp": "2026-09-04T03:05:47.417420Z", "is_demo_data": true, "elevation": 1159.5, "slope": 90.0, "rainfall_24h": 16.9, "rainfall_72h": 107.1, "historical_landslide_density": 0.397, "top_contributors": ["Nearby historical landslides", "Steep terrain", "Sustained multi-day rainfall"], "recommended_action": "Evacuate if instructed. Stay away from hillsides and streams."}}, {"type": "Feature", "geometry": {"type": "Polygon", "coordinates": [[[93.39251572327044, 25.337899159663866], [93.41251572327045, 25.337899159663866], [93.41251572327045, 25.35789915966387], [93.39251572327044, 25.35789915966387], [93.39251572327044, 25.337899159663866]]]}, "properties": {"cell_id": "dh_48_88", "lat": 25.3479, "lon": 93.40252, "risk_score": 0.94, "risk_category": 4, "risk_label": "Very High", "model_version": "rf-v1", "prediction_timestamp": "2026-09-04T03:05:47.417420Z", "is_demo_data": true, "elevation": 1197.9, "slope": 90.0, "rainfall_24h": 94.0, "rainfall_72h": 114.3, "historical_landslide_density": 0.418, "top_contributors": ["Nearby historical landslides", "Steep terrain", "High recent rainfall"], "recommended_action": "Evacuate if instructed. Stay away from hillsides and streams."}}, {"type": "Feature", "geometry": {"type": "Polygon", "coordinates": [[[92.82899371069182, 25.257226890756304], [92.84899371069183, 25.257226890756304], [92.84899371069183, 25.277226890756307], [92.82899371069182, 25.277226890756307], [92.82899371069182, 25.257226890756304]]]}, "properties": {"cell_id": "dh_56_32", "lat": 25.26723, "lon": 92.83899, "risk_score": 0.21, "risk_category": 1, "risk_label": "Low", "model_version": "rf-v1", "prediction_timestamp": "2026-09-04T03:05:47.417420Z", "is_demo_data": true, "elevation": 1415.6, "slope": 90.0, "rainfall_24h": 14.2, "rainfall_72h": 92.3, "historical_landslide_density": 0.289, "top_contributors": ["Nearby historical landslides", "Steep terrain", "Sustained multi-day rainfall"], "recommended_action": "No immediate action required. Stay informed about local advisories."}}, {"type": "Feature", "geometry": {"type": "Polygon", "coordinates": [[[92.9094968553459, 25.257226890756304], [92.92949685534592, 25.257226890756304], [92.92949685534592, 25.277226890756307], [92.9094968553459, 25.277226890756307], [92.9094968553459, 25.257226890756304]]]}, "properties": {"cell_id": "dh_56_40", "lat": 25.26723, "lon": 92.9195, "risk_score": 0.94, "risk_category": 4, "risk_label": "Very High", "model_version": "rf-v1", "prediction_timestamp": "2026-09-04T03:05:47.417420Z", "is_demo_data": true, "elevation": 1065.0, "slope": 90.0, "rainfall_24h": 46.3, "rainfall_72h": 111.6, "historical_landslide_density": 0.746, "top_contributors": ["Nearby historical landslides", "Steep terrain", "Sustained multi-day rainfall"], "recommended_action": "Evacuate if instructed. Stay away from hillsides and streams."}}, {"type": "Feature", "geometry": {"type": "Polygon", "coordinates": [[[92.99, 25.257226890756304], [93.01, 25.257226890756304], [93.01, 25.277226890756307], [92.99, 25.277226890756307], [92.99, 25.257226890756304]]]}, "properties": {"cell_id": "dh_56_48", "lat": 25.26723, "lon": 93.0, "risk_score": 0.97, "risk_category": 4, "risk_label": "Very High", "model_version": "rf-v1", "prediction_timestamp": "2026-09-04T03:05:47.417420Z", "is_demo_data": true, "elevation": 1595.7, "slope": 89.99, "rainfall_24h": 87.0, "rainfall_72h": 127.0, "historical_landslide_density": 0.553, "top_contributors": ["Nearby historical landslides", "Steep terrain", "High recent rainfall"], "recommended_action": "Evacuate if instructed. Stay away from hillsides and streams."}}, {"type": "Feature", "geometry": {"type": "Polygon", "coordinates": [[[93.07050314465408, 25.257226890756304], [93.0905031446541, 25.257226890756304], [93.0905031446541, 25.277226890756307], [93.07050314465408, 25.277226890756307], [93.07050314465408, 25.257226890756304]]]}, "properties": {"cell_id": "dh_56_56", "lat": 25.26723, "lon": 93.0805, "risk_score": 0.2, "risk_category": 1, "risk_label": "Low", "model_version": "rf-v1", "prediction_timestamp": "2026-09-04T03:05:47.417420Z", "is_demo_data": true, "elevation": 729.7, "slope": 90.0, "rainfall_24h": 31.4, "rainfall_72h": 100.3, "historical_landslide_density": 0.328, "top_contributors": ["Nearby historical landslides", "Steep terrain", "Sustained multi-day rainfall"], "recommended_action": "No immediate action required. Stay informed about local advisories."}}, {"type": "Feature", "geometry": {"type": "Polygon", "coordinates": [[[93.15100628930817, 25.257226890756304], [93.17100628930818, 25.257226890756304], [93.17100628930818, 25.277226890756307], [93.15100628930817, 25.277226890756307], [93.15100628930817, 25.257226890756304]]]}, "properties": {"cell_id": "dh_56_64", "lat": 25.26723, "lon": 93.16101, "risk_score": 0.9, "risk_category": 4, "risk_label": "Very High", "model_version": "rf-v1", "prediction_timestamp": "2026-09-04T03:05:47.417420Z", "is_demo_data": true, "elevation": 902.8, "slope": 90.0, "rainfall_24h": 49.4, "rainfall_72h": 108.0, "historical_landslide_density": 0.374, "top_contributors": ["Nearby historical landslides", "Steep terrain", "Sustained multi-day rainfall"], "recommended_action": "Evacuate if instructed. Stay away from hillsides and streams."}}, {"type": "Feature", "geometry": {"type": "Polygon", "coordinates": [[[93.23150943396226, 25.257226890756304], [93.25150943396227, 25.257226890756304], [93.25150943396227, 25.277226890756307], [93.23150943396226, 25.277226890756307], [93.23150943396226, 25.257226890756304]]]}, "properties": {"cell_id": "dh_56_72", "lat": 25.26723, "lon": 93.24151, "risk_score": 0.95, "risk_category": 4, "risk_label": "Very High", "model_version": "rf-v1", "prediction_timestamp": "2026-09-04T03:05:47.417420Z", "is_demo_data": true, "elevation": 1184.7, "slope": 90.0, "rainfall_24h": 77.5, "rainfall_72h": 140.2, "historical_landslide_density": 0.693, "top_contributors": ["Nearby historical landslides", "Steep terrain", "High recent rainfall"], "recommended_action": "Evacuate if instructed. Stay away from hillsides and streams."}}, {"type": "Feature", "geometry": {"type": "Polygon", "coordinates": [[[93.31201257861635, 25.257226890756304], [93.33201257861636, 25.257226890756304], [93.33201257861636, 25.277226890756307], [93.31201257861635, 25.277226890756307], [93.31201257861635, 25.257226890756304]]]}, "properties": {"cell_id": "dh_56_80", "lat": 25.26723, "lon": 93.32201, "risk_score": 0.22, "risk_category": 1, "risk_label": "Low", "model_version": "rf-v1", "prediction_timestamp": "2026-09-04T03:05:47.417420Z", "is_demo_data": true, "elevation": 1035.4, "slope": 90.0, "rainfall_24h": 95.7, "rainfall_72h": 173.8, "historical_landslide_density": 0.233, "top_contributors": ["Nearby historical landslides", "Steep terrain", "Sustained multi-day rainfall"], "recommended_action": "No immediate action required. Stay informed about local advisories."}}, {"type": "Feature", "geometry": {"type": "Polygon", "coordinates": [[[93.39251572327044, 25.257226890756304], [93.41251572327045, 25.257226890756304], [93.41251572327045, 25.277226890756307], [93.39251572327044, 25.277226890756307], [93.39251572327044, 25.257226890756304]]]}, "properties": {"cell_id": "dh_56_88", "lat": 25.26723, "lon": 93.40252, "risk_score": 0.92, "risk_category": 4, "risk_label": "Very High", "model_version": "rf-v1", "prediction_timestamp": "2026-09-04T03:05:47.417420Z", "is_demo_data": true, "elevation": 688.1, "slope": 90.0, "rainfall_24h": 17.0, "rainfall_72h": 56.1, "historical_landslide_density": 0.498, "top_contributors": ["Nearby historical landslides", "Steep terrain", "Sustained multi-day rainfall"], "recommended_action": "Evacuate if instructed. Stay away from hillsides and streams."}}, {"type": "Feature", "geometry": {"type": "Polygon", "coordinates": [[[92.74849056603773, 25.176554621848737], [92.76849056603774, 25.176554621848737], [92.76849056603774, 25.19655462184874], [92.74849056603773, 25.19655462184874], [92.74849056603773, 25.176554621848737]]]}, "properties": {"cell_id": "dh_64_24", "lat": 25.18655, "lon": 92.75849, "risk_score": 0.21, "risk_category": 1, "risk_label": "Low", "model_version": "rf-v1", "prediction_timestamp": "2026-09-04T03:05:47.417420Z", "is_demo_data": true, "elevation": 1595.0, "slope": 90.0, "rainfall_24h": 21.7, "rainfall_72h": 62.8, "historical_landslide_density": 0.279, "top_contributors": ["Nearby historical landslides", "Steep terrain", "Sustained multi-day rainfall"], "recommended_action": "No immediate action required. Stay informed about local advisories."}}, {"type": "Feature", "geometry": {"type": "Polygon", "coordinates": [[[92.82899371069182, 25.176554621848737], [92.84899371069183, 25.176554621848737], [92.84899371069183, 25.19655462184874], [92.82899371069182, 25.19655462184874], [92.82899371069182, 25.176554621848737]]]}, "properties": {"cell_id": "dh_64_32", "lat": 25.18655, "lon": 92.83899, "risk_score": 0.94, "risk_category": 4, "risk_label": "Very High", "model_version": "rf-v1", "prediction_timestamp": "2026-09-04T03:05:47.417420Z", "is_demo_data": true, "elevation": 1469.1, "slope": 90.0, "rainfall_24h": 0.9, "rainfall_72h": 100.4, "historical_landslide_density": 0.65, "top_contributors": ["Nearby historical landslides", "Steep terrain", "Sustained multi-day rainfall"], "recommended_action": "Evacuate if instructed. Stay away from hillsides and streams."}}, {"type": "Feature", "geometry": {"type": "Polygon", "coordinates": [[[92.9094968553459, 25.176554621848737], [92.92949685534592, 25.176554621848737], [92.92949685534592, 25.19655462184874], [92.9094968553459, 25.19655462184874], [92.9094968553459, 25.176554621848737]]]}, "properties": {"cell_id": "dh_64_40", "lat": 25.18655, "lon": 92.9195, "risk_score": 0.94, "risk_category": 4, "risk_label": "Very High", "model_version": "rf-v1", "prediction_timestamp": "2026-09-04T03:05:47.417420Z", "is_demo_data": true, "elevation": 1194.7, "slope": 90.0, "rainfall_24h": 39.1, "rainfall_72h": 65.2, "historical_landslide_density": 0.578, "top_contributors": ["Nearby historical landslides", "Steep terrain", "High recent rainfall"], "recommended_action": "Evacuate if instructed. Stay away from hillsides and streams."}}, {"type": "Feature", "geometry": {"type": "Polygon", "coordinates": [[[92.99, 25.176554621848737], [93.01, 25.176554621848737], [93.01, 25.19655462184874], [92.99, 25.19655462184874], [92.99, 25.176554621848737]]]}, "properties": {"cell_id": "dh_64_48", "lat": 25.18655, "lon": 93.0, "risk_score": 0.23, "risk_category": 1, "risk_label": "Low", "model_version": "rf-v1", "prediction_timestamp": "2026-09-04T03:05:47.417420Z", "is_demo_data": true, "elevation": 1604.4, "slope": 89.99, "rainfall_24h": 87.5, "rainfall_72h": 133.4, "historical_landslide_density": 0.339, "top_contributors": ["Nearby historical landslides", "Steep terrain", "High recent rainfall"], "recommended_action": "No immediate action required. Stay informed about local advisories."}}, {"type": "Feature", "geometry": {"type": "Polygon", "coordinates": [[[93.07050314465408, 25.176554621848737], [93.0905031446541, 25.176554621848737], [93.0905031446541, 25.19655462184874], [93.07050314465408, 25.19655462184874], [93.07050314465408, 25.176554621848737]]]}, "properties": {"cell_id": "dh_64_56", "lat": 25.18655, "lon": 93.0805, "risk_score": 0.9, "risk_category": 4, "risk_label": "Very High", "model_version": "rf-v1", "prediction_timestamp": "2026-09-04T03:05:47.417420Z", "is_demo_data": true, "elevation": 1103.1, "slope": 89.99, "rainfall_24h": 79.2, "rainfall_72h": 98.0, "historical_landslide_density": 0.421, "top_contributors": ["Nearby historical landslides", "Steep terrain", "High recent rainfall"], "recommended_action": "Evacuate if instructed. Stay away from hillsides and streams."}}, {"type": "Feature", "geometry": {"type": "Polygon", "coordinates": [[[93.15100628930817, 25.176554621848737], [93.17100628930818, 25.176554621848737], [93.17100628930818, 25.19655462184874], [93.15100628930817, 25.19655462184874], [93.15100628930817, 25.176554621848737]]]}, "properties": {"cell_id": "dh_64_64", "lat": 25.18655, "lon": 93.16101, "risk_score": 0.94, "risk_category": 4, "risk_label": "Very High", "model_version": "rf-v1", "prediction_timestamp": "2026-09-04T03:05:47.417420Z", "is_demo_data": true, "elevation": 1411.3, "slope": 90.0, "rainfall_24h": 9.0, "rainfall_72h": 47.0, "historical_landslide_density": 0.648, "top_contributors": ["Nearby historical landslides", "Steep terrain", "Sustained multi-day rainfall"], "recommended_action": "Evacuate if instructed. Stay away from hillsides and streams."}}, {"type": "Feature", "geometry": {"type": "Polygon", "coordinates": [[[93.23150943396226, 25.176554621848737], [93.25150943396227, 25.176554621848737], [93.25150943396227, 25.19655462184874], [93.23150943396226, 25.19655462184874], [93.23150943396226, 25.176554621848737]]]}, "properties": {"cell_id": "dh_64_72", "lat": 25.18655, "lon": 93.24151, "risk_score": 0.9, "risk_category": 4, "risk_label": "Very High", "model_version": "rf-v1", "prediction_timestamp": "2026-09-04T03:05:47.417420Z", "is_demo_data": true, "elevation": 1194.3, "slope": 90.0, "rainfall_24h": 18.1, "rainfall_72h": 60.9, "historical_landslide_density": 0.432, "top_contributors": ["Nearby historical landslides", "Steep terrain", "Sustained multi-day rainfall"], "recommended_action": "Evacuate if instructed. Stay away from hillsides and streams."}}, {"type": "Feature", "geometry": {"type": "Polygon", "coordinates": [[[93.31201257861635, 25.176554621848737], [93.33201257861636, 25.176554621848737], [93.33201257861636, 25.19655462184874], [93.31201257861635, 25.19655462184874], [93.31201257861635, 25.176554621848737]]]}, "properties": {"cell_id": "dh_64_80", "lat": 25.18655, "lon": 93.32201, "risk_score": 0.23, "risk_category": 1, "risk_label": "Low", "model_version": "rf-v1", "prediction_timestamp": "2026-09-04T03:05:47.417420Z", "is_demo_data": true, "elevation": 1409.3, "slope": 90.0, "rainfall_24h": 83.8, "rainfall_72h": 169.2, "historical_landslide_density": 0.19, "top_contributors": ["Nearby historical landslides", "Steep terrain", "Sustained multi-day rainfall"], "recommended_action": "No immediate action required. Stay informed about local advisories."}}, {"type": "Feature", "geometry": {"type": "Polygon", "coordinates": [[[92.82899371069182, 25.095882352941175], [92.84899371069183, 25.095882352941175], [92.84899371069183, 25.115882352941178], [92.82899371069182, 25.115882352941178], [92.82899371069182, 25.095882352941175]]]}, "properties": {"cell_id": "dh_72_32", "lat": 25.10588, "lon": 92.83899, "risk_score": 0.95, "risk_category": 4, "risk_label": "Very High", "model_version": "rf-v1", "prediction_timestamp": "2026-09-04T03:05:47.417420Z", "is_demo_data": true, "elevation": 1374.6, "slope": 90.0, "rainfall_24h": 97.3, "rainfall_72h": 152.3, "historical_landslide_density": 0.409, "top_contributors": ["Nearby historical landslides", "Steep terrain", "High recent rainfall"], "recommended_action": "Evacuate if instructed. Stay away from hillsides and streams."}}, {"type": "Feature", "geometry": {"type": "Polygon", "coordinates": [[[92.9094968553459, 25.095882352941175], [92.92949685534592, 25.095882352941175], [92.92949685534592, 25.115882352941178], [92.9094968553459, 25.115882352941178], [92.9094968553459, 25.095882352941175]]]}, "properties": {"cell_id": "dh_72_40", "lat": 25.10588, "lon": 92.9195, "risk_score": 0.97, "risk_category": 4, "risk_label": "Very High", "model_version": "rf-v1", "prediction_timestamp": "2026-09-04T03:05:47.417420Z", "is_demo_data": true, "elevation": 1780.8, "slope": 90.0, "rainfall_24h": 85.4, "rainfall_72h": 137.3, "historical_landslide_density": 0.557, "top_contributors": ["Nearby historical landslides", "Steep terrain", "High recent rainfall"], "recommended_action": "Evacuate if instructed. Stay away from hillsides and streams."}}, {"type": "Feature", "geometry": {"type": "Polygon", "coordinates": [[[92.99, 25.095882352941175], [93.01, 25.095882352941175], [93.01, 25.115882352941178], [92.99, 25.115882352941178], [92.99, 25.095882352941175]]]}, "properties": {"cell_id": "dh_72_48", "lat": 25.10588, "lon": 93.0, "risk_score": 0.94, "risk_category": 4, "risk_label": "Very High", "model_version": "rf-v1", "prediction_timestamp": "2026-09-04T03:05:47.417420Z", "is_demo_data": true, "elevation": 1404.3, "slope": 90.0, "rainfall_24h": 15.0, "rainfall_72h": 93.5, "historical_landslide_density": 0.689, "top_contributors": ["Nearby historical landslides", "Steep terrain", "Sustained multi-day rainfall"], "recommended_action": "Evacuate if instructed. Stay away from hillsides and streams."}}, {"type": "Feature", "geometry": {"type": "Polygon", "coordinates": [[[93.07050314465408, 25.095882352941175], [93.0905031446541, 25.095882352941175], [93.0905031446541, 25.115882352941178], [93.07050314465408, 25.115882352941178], [93.07050314465408, 25.095882352941175]]]}, "properties": {"cell_id": "dh_72_56", "lat": 25.10588, "lon": 93.0805, "risk_score": 0.95, "risk_category": 4, "risk_label": "Very High", "model_version": "rf-v1", "prediction_timestamp": "2026-09-04T03:05:47.417420Z", "is_demo_data": true, "elevation": 1494.4, "slope": 90.0, "rainfall_24h": 67.9, "rainfall_72h": 89.3, "historical_landslide_density": 0.659, "top_contributors": ["Nearby historical landslides", "Steep terrain", "High recent rainfall"], "recommended_action": "Evacuate if instructed. Stay away from hillsides and streams."}}, {"type": "Feature", "geometry": {"type": "Polygon", "coordinates": [[[93.15100628930817, 25.095882352941175], [93.17100628930818, 25.095882352941175], [93.17100628930818, 25.115882352941178], [93.15100628930817, 25.115882352941178], [93.15100628930817, 25.095882352941175]]]}, "properties": {"cell_id": "dh_72_64", "lat": 25.10588, "lon": 93.16101, "risk_score": 0.92, "risk_category": 4, "risk_label": "Very High", "model_version": "rf-v1", "prediction_timestamp": "2026-09-04T03:05:47.417420Z", "is_demo_data": true, "elevation": 1410.0, "slope": 90.0, "rainfall_24h": 43.3, "rainfall_72h": 89.6, "historical_landslide_density": 0.448, "top_contributors": ["Nearby historical landslides", "Steep terrain", "Sustained multi-day rainfall"], "recommended_action": "Evacuate if instructed. Stay away from hillsides and streams."}}, {"type": "Feature", "geometry": {"type": "Polygon", "coordinates": [[[93.23150943396226, 25.095882352941175], [93.25150943396227, 25.095882352941175], [93.25150943396227, 25.115882352941178], [93.23150943396226, 25.115882352941178], [93.23150943396226, 25.095882352941175]]]}, "properties": {"cell_id": "dh_72_72", "lat": 25.10588, "lon": 93.24151, "risk_score": 0.25, "risk_category": 2, "risk_label": "Moderate", "model_version": "rf-v1", "prediction_timestamp": "2026-09-04T03:05:47.417420Z", "is_demo_data": true, "elevation": 1188.8, "slope": 89.99, "rainfall_24h": 98.5, "rainfall_72h": 134.8, "historical_landslide_density": 0.329, "top_contributors": ["Nearby historical landslides", "Steep terrain", "High recent rainfall"], "recommended_action": "Monitor local advisories. Avoid unstable slopes during rainfall."}}, {"type": "Feature", "geometry": {"type": "Polygon", "coordinates": [[[93.31201257861635, 25.095882352941175], [93.33201257861636, 25.095882352941175], [93.33201257861636, 25.115882352941178], [93.31201257861635, 25.115882352941178], [93.31201257861635, 25.095882352941175]]]}, "properties": {"cell_id": "dh_72_80", "lat": 25.10588, "lon": 93.32201, "risk_score": 0.2, "risk_category": 1, "risk_label": "Low", "model_version": "rf-v1", "prediction_timestamp": "2026-09-04T03:05:47.417420Z", "is_demo_data": true, "elevation": 1028.9, "slope": 90.0, "rainfall_24h": 29.0, "rainfall_72h": 84.5, "historical_landslide_density": 0.321, "top_contributors": ["Nearby historical landslides", "Steep terrain", "Sustained multi-day rainfall"], "recommended_action": "No immediate action required. Stay informed about local advisories."}}, {"type": "Feature", "geometry": {"type": "Polygon", "coordinates": [[[93.07050314465408, 25.015210084033612], [93.0905031446541, 25.015210084033612], [93.0905031446541, 25.035210084033615], [93.07050314465408, 25.035210084033615], [93.07050314465408, 25.015210084033612]]]}, "properties": {"cell_id": "dh_80_56", "lat": 25.02521, "lon": 93.0805, "risk_score": 0.98, "risk_category": 4, "risk_label": "Very High", "model_version": "rf-v1", "prediction_timestamp": "2026-09-04T03:05:47.417420Z", "is_demo_data": true, "elevation": 1415.1, "slope": 90.0, "rainfall_24h": 97.4, "rainfall_72h": 128.1, "historical_landslide_density": 0.811, "top_contributors": ["Nearby historical landslides", "Steep terrain", "High recent rainfall"], "recommended_action": "Evacuate if instructed. Stay away from hillsides and streams."}}, {"type": "Feature", "geometry": {"type": "Polygon", "coordinates": [[[93.15100628930817, 25.015210084033612], [93.17100628930818, 25.015210084033612], [93.17100628930818, 25.035210084033615], [93.15100628930817, 25.035210084033615], [93.15100628930817, 25.015210084033612]]]}, "properties": {"cell_id": "dh_80_64", "lat": 25.02521, "lon": 93.16101, "risk_score": 0.88, "risk_category": 4, "risk_label": "Very High", "model_version": "rf-v1", "prediction_timestamp": "2026-09-04T03:05:47.417420Z", "is_demo_data": true, "elevation": 1103.8, "slope": 89.99, "rainfall_24h": 2.0, "rainfall_72h": 42.2, "historical_landslide_density": 0.367, "top_contributors": ["Nearby historical landslides", "Steep terrain", "Sustained multi-day rainfall"], "recommended_action": "Evacuate if instructed. Stay away from hillsides and streams."}}, {"type": "Feature", "geometry": {"type": "Polygon", "coordinates": [[[93.23150943396226, 25.015210084033612], [93.25150943396227, 25.015210084033612], [93.25150943396227, 25.035210084033615], [93.23150943396226, 25.035210084033615], [93.23150943396226, 25.015210084033612]]]}, "properties": {"cell_id": "dh_80_72", "lat": 25.02521, "lon": 93.24151, "risk_score": 0.93, "risk_category": 4, "risk_label": "Very High", "model_version": "rf-v1", "prediction_timestamp": "2026-09-04T03:05:47.417420Z", "is_demo_data": true, "elevation": 1709.1, "slope": 90.0, "rainfall_24h": 46.3, "rainfall_72h": 111.8, "historical_landslide_density": 0.485, "top_contributors": ["Nearby historical landslides", "Steep terrain", "Sustained multi-day rainfall"], "recommended_action": "Evacuate if instructed. Stay away from hillsides and streams."}}]}